[{"OBJECT_NAME":"LEMUR-2-GREENBERG","OBJECT_ID":"2017-042N","EPOCH":"2026-03-09T11:05:17.256192","MEAN_MOTION":15.27971352,"ECCENTRICITY":0.00091572,"INCLINATION":97.3781,"RA_OF_ASC_NODE":249.8007,"ARG_OF_PERICENTER":4.0119,"MEAN_ANOMALY":356.1192,"EPHEMERIS_TYPE":0,"CLASSIFICATION_TYPE":"U","NORAD_CAT_ID":42837,"ELEMENT_SET_NO":999,"REV_AT_EPOCH":47314,"BSTAR":0.00072539172,"MEAN_MOTION_DOT":0.00019778,"MEAN_MOTION_DDOT":0},{"OBJECT_NAME":"STARLINK-35650","OBJECT_ID":"2025-268S","EPOCH":"2026-03-09T03:30:00.926784","MEAN_MOTION":15.27552243,"ECCENTRICITY":0.00014842,"INCLINATION":43.0029,"RA_OF_ASC_NODE":350.3909,"ARG_OF_PERICENTER":294.8754,"MEAN_ANOMALY":65.1944,"EPHEMERIS_TYPE":0,"CLASSIFICATION_TYPE":"U","NORAD_CAT_ID":66573,"ELEMENT_SET_NO":999,"REV_AT_EPOCH":1787,"BSTAR":0.00078546773,"MEAN_MOTION_DOT":0.00021397,"MEAN_MOTION_DDOT":0}]
